{
  "type": "FeatureCollection",
  "features": [
    {
      "type": "Feature",
      "properties": {
        "name": "Polygon 1"
      },
      "geometry": {
        "type": "Polygon",
        "coordinates": [
          [
            [
              74.7651426,
              32.0974233
            ],
            [
              74.7647213,
              32.0974508
            ],
            [
              74.7645239,
              32.0976162
            ],
            [
              74.7636259,
              32.0976039
            ],
            [
              74.763738,
              32.0968865
            ],
            [
              74.7623133,
              32.0968611
            ],
            [
              74.7624806,
              32.0954687
            ],
            [
              74.7621186,
              32.0950608
            ],
            [
              74.7622039,
              32.0911902
            ],
            [
              74.760046,
              32.0911355
            ],
            [
              74.7601045,
              32.0898672
            ],
            [
              74.7592655,
              32.0898635
            ],
            [
              74.7594691,
              32.0893213
            ],
            [
              74.7595643,
              32.0893296
            ],
            [
              74.7595948,
              32.0892213
            ],
            [
              74.7595388,
              32.0891215
            ],
            [
              74.7596933,
              32.0886858
            ],
            [
              74.7600385,
              32.0886942
            ],
            [
              74.7603749,
              32.0866535
            ],
            [
              74.7620564,
              32.0867858
            ],
            [
              74.76205,
              32.0868458
            ],
            [
              74.7631329,
              32.0865395
            ],
            [
              74.762854,
              32.0862777
            ],
            [
              74.7685919,
              32.0861067
            ],
            [
              74.7685997,
              32.0861717
            ],
            [
              74.7686919,
              32.0895764
            ],
            [
              74.7686049,
              32.0896167
            ],
            [
              74.7685066,
              32.0934643
            ],
            [
              74.7678601,
              32.0934715
            ],
            [
              74.7677904,
              32.0935151
            ],
            [
              74.7677057,
              32.0976617
            ],
            [
              74.7654087,
              32.0976224
            ],
            [
              74.7651426,
              32.0974233
            ]
          ]
        ]
      }
    }
  ]
}